STARLINK-1667_new
1 16155C 20057AQ  21326.04741083 -.00013333  00000-0 -89311-3 0  3260
2 16155  53.0520 118.5289 0001447  73.1087 316.4304 15.06419793    11
STARLINK-1667_old
1 26155C 20057AQ  21325.09394625  .00002817  00000-0  18868-3 0  3251
2 26155  53.0514 122.8093 0001470  73.5450 182.4427 15.06402087    14
